STARLINK-36378
1 68025U 26040L   26090.83335647 -.01907956  00000+0 -22461-1 0  9993
2 68025  97.2858  40.3701 0001727 100.2956 151.6928 15.64472096  5941
STARLINK-36229
1 68114U 26044P   26090.83335647 -.01906031  00000+0 -22435-1 0  9990
2 68114  97.2855  52.0609 0001717  89.6480 347.7757 15.64473145  4960
